[{"OBJECT_NAME":"STARLINK-31349","OBJECT_ID":"2024-056X","EPOCH":"2026-03-09T11:36:04.250592","MEAN_MOTION":15.27574483,"ECCENTRICITY":0.00011081,"INCLINATION":42.9995,"RA_OF_ASC_NODE":231.7936,"ARG_OF_PERICENTER":266.9092,"MEAN_ANOMALY":93.1633,"EPHEMERIS_TYPE":0,"CLASSIFICATION_TYPE":"U","NORAD_CAT_ID":59317,"ELEMENT_SET_NO":999,"REV_AT_EPOCH":11119,"BSTAR":2.004942e-6,"MEAN_MOTION_DOT":-2.07e-6,"MEAN_MOTION_DDOT":0},{"OBJECT_NAME":"GEOSCAN 6 (RS92S6)","OBJECT_ID":"2025-155D","EPOCH":"2026-03-09T21:52:39.201312","MEAN_MOTION":15.27985277,"ECCENTRICITY":0.00087677,"INCLINATION":97.4466,"RA_OF_ASC_NODE":37.2933,"ARG_OF_PERICENTER":153.7679,"MEAN_ANOMALY":206.4006,"EPHEMERIS_TYPE":0,"CLASSIFICATION_TYPE":"U","NORAD_CAT_ID":64879,"ELEMENT_SET_NO":999,"REV_AT_EPOCH":6559,"BSTAR":0.00053762354,"MEAN_MOTION_DOT":0.00014633,"MEAN_MOTION_DDOT":0}]
